{
    "links": {
        "self": "http://www.neowsapp.com/rest/v1/neo/3841987?api_key=iIulBulltgU6a56xZRHN4H3l9WmuAYTsLGpBGhQ2"
    },
    "id": "3841987",
    "neo_reference_id": "3841987",
    "name": "(2019 KE1)",
    "designation": "2019 KE1",
    "nasa_jpl_url": "http://ssd.jpl.nasa.gov/sbdb.cgi?sstr=3841987",
    "absolute_magnitude_h": 20.5,
    "estimated_diameter": {
        "kilometers": {
            "estimated_diameter_min": 0.2111324448,
            "estimated_diameter_max": 0.4721064988
        },
        "meters": {
            "estimated_diameter_min": 211.1324447897,
            "estimated_diameter_max": 472.1064988055
        },
        "miles": {
            "estimated_diameter_min": 0.1311915784,
            "estimated_diameter_max": 0.2933532873
        },
        "feet": {
            "estimated_diameter_min": 692.6917701639,
            "estimated_diameter_max": 1548.9058855411
        }
    },
    "is_potentially_hazardous_asteroid": false,
    "close_approach_data": [
        {
            "close_approach_date": "2019-04-26",
            "close_approach_date_full": "2019-Apr-26 06:25",
            "epoch_date_close_approach": 1556259900000,
            "relative_velocity": {
                "kilometers_per_second": "25.8480760278",
                "kilometers_per_hour": "93053.0737002272",
                "miles_per_hour": "57819.5612666773"
            },
            "miss_distance": {
                "astronomical": "0.354004677",
                "lunar": "137.707819353",
                "kilometers": "52958345.64923799",
                "miles": "32906790.078304662"
            },
            "orbiting_body": "Earth"
        }
    ],
    "orbital_data": {
        "orbit_id": "3",
        "orbit_determination_date": "2019-06-04 06:25:57",
        "first_observation_date": "2019-05-25",
        "last_observation_date": "2019-06-04",
        "data_arc_in_days": 10,
        "observations_used": 39,
        "orbit_uncertainty": "9",
        "minimum_orbit_intersection": ".303187",
        "jupiter_tisserand_invariant": "3.645",
        "epoch_osculation": "2458629.5",
        "eccentricity": ".7488949816899964",
        "semi_major_axis": "1.783763524421627",
        "inclination": "20.31806874999446",
        "ascending_node_longitude": "122.493104442695",
        "orbital_period": "870.1704784861064",
        "perihelion_distance": ".4479119724606093",
        "perihelion_argument": "346.4661381787305",
        "aphelion_distance": "3.119615076382645",
        "perihelion_time": "2458557.093632397137",
        "mean_anomaly": "29.95538573358631",
        "mean_motion": ".4137120356304388",
        "equinox": "J2000",
        "orbit_class": {
            "orbit_class_type": "APO",
            "orbit_class_description": "Near-Earth asteroid orbits which cross the Earth’s orbit similar to that of 1862 Apollo",
            "orbit_class_range": "a (semi-major axis) > 1.0 AU; q (perihelion) < 1.017 AU"
        }
    },
    "is_sentry_object": false
}